STARLINK-36993          
1 67994U 26039J   26075.83335647 -.01939831  00000+0 -15737-1 0  9993
2 67994  42.9997  11.1640 0001339 263.0739 194.0351 15.72741546  4027
STARLINK-36968          
1 67995U 26039K   26075.83335647 -.01870779  00000+0 -26624-1 0  9996
2 67995  42.9993  11.6260 0001181 249.8529  21.3711 15.58805694  4022
STARLINK-36979          
1 67996U 26039L   26073.97821315  .00202745  00000+0  94175-3 0  9999
2 67996  42.9991  22.4301 0002165 291.0763  68.9877 15.82043667  2477
STARLINK-36994          
1 67997U 26039M   26075.83335647 -.01932659  00000+0 -18830-1 0  9994
2 67997  42.9995  11.2268 0001433 262.5521 168.9265 15.68406803  4026
STARLINK-36988          
1 67998U 26039N   26075.83335647 -.01934771  00000+0 -18055-1 0  9991
2 67998  43.0000  11.2077 0001439 264.7633 174.1204 15.69442738  4028
STARLINK-36926          
1 67999U 26039P   26075.83335647 -.01933168  00000+0 -18689-1 0  9994
2 67999  42.9997  11.2106 0001462 266.9751 170.9525 15.68593831  4026
STARLINK-36931          
1 68000U 26039Q   26075.83335647 -.01941103  00000+0 -15810-1 0  9999
2 68000  43.0002  11.1013 0001370 264.3628 217.6430 15.72651077  4024
STARLINK-36903          
1 68001U 26039R   26075.83335647 -.01932801  00000+0 -18777-1 0  9990
2 68001  42.9998  11.1923 0001351 265.3503 179.7898 15.68477991  4021
STARLINK-36898          
1 68002U 26039S   26075.87480543 -.00756893  00000+0 -61996-2 0  9997
2 68002  42.9989  10.8406 0000945 244.8898 115.1872 15.71783236  2773
STARLINK-36862          
1 68003U 26039T   26075.83335647 -.01934129  00000+0 -18081-1 0  9995
2 68003  42.9998  11.1230 0001347 267.7428 204.8896 15.69400620  4025
STARLINK-36888          
1 68004U 26039U   26075.83335647 -.01934422  00000+0 -18333-1 0  9992
2 68004  42.9997  11.1646 0001342 263.6851 192.5105 15.69073822  4022
STARLINK-36910          
1 68005U 26039V   26073.84527645  .00440599  00000+0  19958-2 0  9992
2 68005  42.9987  23.1480 0005145 216.7099 143.3421 15.81949852  2458
STARLINK-36889          
1 68006U 26039W   26075.83335647 -.01932012  00000+0 -19588-1 0  9990
2 68006  42.9999  11.1695 0001344 263.5711 190.4146 15.67444819  4024
STARLINK-36592          
1 68007U 26039X   26075.87132049 -.00753358  00000+0 -60804-2 0  9997
2 68007  42.9994  10.8115 0001808 266.2905  93.7756 15.72110743  2777
STARLINK-36911          
1 68008U 26039Y   26075.87310394 -.00768625  00000+0 -66247-2 0  9999
2 68008  42.9978  10.8245 0000735 199.3214 160.7626 15.70619159  2775
STARLINK-36956          
1 68009U 26039Z   26075.83335647 -.01933922  00000+0 -18254-1 0  9993
2 68009  42.9994  11.0861 0001266 260.9768 226.2103 15.69170847  4022
