[{"OBJECT_NAME":"STARLINK-36993","OBJECT_ID":"2026-039J","EPOCH":"2026-03-16T20:00:01.999008","MEAN_MOTION":15.72741546,"ECCENTRICITY":0.0001339,"INCLINATION":42.9997,"RA_OF_ASC_NODE":11.164,"ARG_OF_PERICENTER":263.0739,"MEAN_ANOMALY":194.0351,"EPHEMERIS_TYPE":0,"CLASSIFICATION_TYPE":"U","NORAD_CAT_ID":67994,"ELEMENT_SET_NO":999,"REV_AT_EPOCH":402,"BSTAR":-0.015737,"MEAN_MOTION_DOT":-0.01939831,"MEAN_MOTION_DDOT":0},{"OBJECT_NAME":"STARLINK-36968","OBJECT_ID":"2026-039K","EPOCH":"2026-03-16T20:00:01.999008","MEAN_MOTION":15.58805694,"ECCENTRICITY":0.0001181,"INCLINATION":42.9993,"RA_OF_ASC_NODE":11.626,"ARG_OF_PERICENTER":249.8529,"MEAN_ANOMALY":21.3711,"EPHEMERIS_TYPE":0,"CLASSIFICATION_TYPE":"U","NORAD_CAT_ID":67995,"ELEMENT_SET_NO":999,"REV_AT_EPOCH":402,"BSTAR":-0.026624,"MEAN_MOTION_DOT":-0.01870779,"MEAN_MOTION_DDOT":0},{"OBJECT_NAME":"STARLINK-36979","OBJECT_ID":"2026-039L","EPOCH":"2026-03-14T23:28:37.616160","MEAN_MOTION":15.82043667,"ECCENTRICITY":0.00021657,"INCLINATION":42.9991,"RA_OF_ASC_NODE":22.4301,"ARG_OF_PERICENTER":291.0763,"MEAN_ANOMALY":68.9877,"EPHEMERIS_TYPE":0,"CLASSIFICATION_TYPE":"U","NORAD_CAT_ID":67996,"ELEMENT_SET_NO":999,"REV_AT_EPOCH":247,"BSTAR":0.00094174817,"MEAN_MOTION_DOT":0.00202745,"MEAN_MOTION_DDOT":0},{"OBJECT_NAME":"STARLINK-36994","OBJECT_ID":"2026-039M","EPOCH":"2026-03-16T20:00:01.999008","MEAN_MOTION":15.68406803,"ECCENTRICITY":0.0001433,"INCLINATION":42.9995,"RA_OF_ASC_NODE":11.2268,"ARG_OF_PERICENTER":262.5521,"MEAN_ANOMALY":168.9265,"EPHEMERIS_TYPE":0,"CLASSIFICATION_TYPE":"U","NORAD_CAT_ID":67997,"ELEMENT_SET_NO":999,"REV_AT_EPOCH":402,"BSTAR":-0.01883,"MEAN_MOTION_DOT":-0.01932659,"MEAN_MOTION_DDOT":0},{"OBJECT_NAME":"STARLINK-36988","OBJECT_ID":"2026-039N","EPOCH":"2026-03-16T20:00:01.999008","MEAN_MOTION":15.69442738,"ECCENTRICITY":0.0001439,"INCLINATION":43,"RA_OF_ASC_NODE":11.2077,"ARG_OF_PERICENTER":264.7633,"MEAN_ANOMALY":174.1204,"EPHEMERIS_TYPE":0,"CLASSIFICATION_TYPE":"U","NORAD_CAT_ID":67998,"ELEMENT_SET_NO":999,"REV_AT_EPOCH":402,"BSTAR":-0.018055,"MEAN_MOTION_DOT":-0.01934771,"MEAN_MOTION_DDOT":0},{"OBJECT_NAME":"STARLINK-36926","OBJECT_ID":"2026-039P","EPOCH":"2026-03-16T20:00:01.999008","MEAN_MOTION":15.68593831,"ECCENTRICITY":0.0001462,"INCLINATION":42.9997,"RA_OF_ASC_NODE":11.2106,"ARG_OF_PERICENTER":266.9751,"MEAN_ANOMALY":170.9525,"EPHEMERIS_TYPE":0,"CLASSIFICATION_TYPE":"U","NORAD_CAT_ID":67999,"ELEMENT_SET_NO":999,"REV_AT_EPOCH":402,"BSTAR":-0.018689,"MEAN_MOTION_DOT":-0.01933168,"MEAN_MOTION_DDOT":0},{"OBJECT_NAME":"STARLINK-36931","OBJECT_ID":"2026-039Q","EPOCH":"2026-03-16T20:00:01.999008","MEAN_MOTION":15.72651077,"ECCENTRICITY":0.000137,"INCLINATION":43.0002,"RA_OF_ASC_NODE":11.1013,"ARG_OF_PERICENTER":264.3628,"MEAN_ANOMALY":217.643,"EPHEMERIS_TYPE":0,"CLASSIFICATION_TYPE":"U","NORAD_CAT_ID":68000,"ELEMENT_SET_NO":999,"REV_AT_EPOCH":402,"BSTAR":-0.01581,"MEAN_MOTION_DOT":-0.01941103,"MEAN_MOTION_DDOT":0},{"OBJECT_NAME":"STARLINK-36903","OBJECT_ID":"2026-039R","EPOCH":"2026-03-16T20:00:01.999008","MEAN_MOTION":15.68477991,"ECCENTRICITY":0.0001351,"INCLINATION":42.9998,"RA_OF_ASC_NODE":11.1923,"ARG_OF_PERICENTER":265.3503,"MEAN_ANOMALY":179.7898,"EPHEMERIS_TYPE":0,"CLASSIFICATION_TYPE":"U","NORAD_CAT_ID":68001,"ELEMENT_SET_NO":999,"REV_AT_EPOCH":402,"BSTAR":-0.018777,"MEAN_MOTION_DOT":-0.01932801,"MEAN_MOTION_DDOT":0},{"OBJECT_NAME":"STARLINK-36898","OBJECT_ID":"2026-039S","EPOCH":"2026-03-16T20:59:43.189152","MEAN_MOTION":15.71783236,"ECCENTRICITY":9.45e-5,"INCLINATION":42.9989,"RA_OF_ASC_NODE":10.8406,"ARG_OF_PERICENTER":244.8898,"MEAN_ANOMALY":115.1872,"EPHEMERIS_TYPE":0,"CLASSIFICATION_TYPE":"U","NORAD_CAT_ID":68002,"ELEMENT_SET_NO":999,"REV_AT_EPOCH":277,"BSTAR":-0.0061996,"MEAN_MOTION_DOT":-0.00756893,"MEAN_MOTION_DDOT":0},{"OBJECT_NAME":"STARLINK-36862","OBJECT_ID":"2026-039T","EPOCH":"2026-03-16T20:00:01.999008","MEAN_MOTION":15.6940062,"ECCENTRICITY":0.0001347,"INCLINATION":42.9998,"RA_OF_ASC_NODE":11.123,"ARG_OF_PERICENTER":267.7428,"MEAN_ANOMALY":204.8896,"EPHEMERIS_TYPE":0,"CLASSIFICATION_TYPE":"U","NORAD_CAT_ID":68003,"ELEMENT_SET_NO":999,"REV_AT_EPOCH":402,"BSTAR":-0.018081,"MEAN_MOTION_DOT":-0.01934129,"MEAN_MOTION_DDOT":0},{"OBJECT_NAME":"STARLINK-36888","OBJECT_ID":"2026-039U","EPOCH":"2026-03-16T20:00:01.999008","MEAN_MOTION":15.69073822,"ECCENTRICITY":0.0001342,"INCLINATION":42.9997,"RA_OF_ASC_NODE":11.1646,"ARG_OF_PERICENTER":263.6851,"MEAN_ANOMALY":192.5105,"EPHEMERIS_TYPE":0,"CLASSIFICATION_TYPE":"U","NORAD_CAT_ID":68004,"ELEMENT_SET_NO":999,"REV_AT_EPOCH":402,"BSTAR":-0.018333,"MEAN_MOTION_DOT":-0.01934422,"MEAN_MOTION_DDOT":0},{"OBJECT_NAME":"STARLINK-36910","OBJECT_ID":"2026-039V","EPOCH":"2026-03-14T20:17:11.885280","MEAN_MOTION":15.81949852,"ECCENTRICITY":0.00051452,"INCLINATION":42.9987,"RA_OF_ASC_NODE":23.148,"ARG_OF_PERICENTER":216.7099,"MEAN_ANOMALY":143.3421,"EPHEMERIS_TYPE":0,"CLASSIFICATION_TYPE":"U","NORAD_CAT_ID":68005,"ELEMENT_SET_NO":999,"REV_AT_EPOCH":245,"BSTAR":0.0019957939,"MEAN_MOTION_DOT":0.00440599,"MEAN_MOTION_DDOT":0},{"OBJECT_NAME":"STARLINK-36889","OBJECT_ID":"2026-039W","EPOCH":"2026-03-16T20:00:01.999008","MEAN_MOTION":15.67444819,"ECCENTRICITY":0.0001344,"INCLINATION":42.9999,"RA_OF_ASC_NODE":11.1695,"ARG_OF_PERICENTER":263.5711,"MEAN_ANOMALY":190.4146,"EPHEMERIS_TYPE":0,"CLASSIFICATION_TYPE":"U","NORAD_CAT_ID":68006,"ELEMENT_SET_NO":999,"REV_AT_EPOCH":402,"BSTAR":-0.019588,"MEAN_MOTION_DOT":-0.01932012,"MEAN_MOTION_DDOT":0},{"OBJECT_NAME":"STARLINK-36592","OBJECT_ID":"2026-039X","EPOCH":"2026-03-16T20:54:42.090336","MEAN_MOTION":15.72110743,"ECCENTRICITY":0.0001808,"INCLINATION":42.9994,"RA_OF_ASC_NODE":10.8115,"ARG_OF_PERICENTER":266.2905,"MEAN_ANOMALY":93.7756,"EPHEMERIS_TYPE":0,"CLASSIFICATION_TYPE":"U","NORAD_CAT_ID":68007,"ELEMENT_SET_NO":999,"REV_AT_EPOCH":277,"BSTAR":-0.0060804,"MEAN_MOTION_DOT":-0.00753358,"MEAN_MOTION_DDOT":0},{"OBJECT_NAME":"STARLINK-36911","OBJECT_ID":"2026-039Y","EPOCH":"2026-03-16T20:57:16.180416","MEAN_MOTION":15.70619159,"ECCENTRICITY":7.35e-5,"INCLINATION":42.9978,"RA_OF_ASC_NODE":10.8245,"ARG_OF_PERICENTER":199.3214,"MEAN_ANOMALY":160.7626,"EPHEMERIS_TYPE":0,"CLASSIFICATION_TYPE":"U","NORAD_CAT_ID":68008,"ELEMENT_SET_NO":999,"REV_AT_EPOCH":277,"BSTAR":-0.0066247,"MEAN_MOTION_DOT":-0.00768625,"MEAN_MOTION_DDOT":0},{"OBJECT_NAME":"STARLINK-36956","OBJECT_ID":"2026-039Z","EPOCH":"2026-03-16T20:00:01.999008","MEAN_MOTION":15.69170847,"ECCENTRICITY":0.0001266,"INCLINATION":42.9994,"RA_OF_ASC_NODE":11.0861,"ARG_OF_PERICENTER":260.9768,"MEAN_ANOMALY":226.2103,"EPHEMERIS_TYPE":0,"CLASSIFICATION_TYPE":"U","NORAD_CAT_ID":68009,"ELEMENT_SET_NO":999,"REV_AT_EPOCH":402,"BSTAR":-0.018254,"MEAN_MOTION_DOT":-0.01933922,"MEAN_MOTION_DDOT":0}]
